NORAD_CAT_ID,OBJECT_NAME,OBJECT_TYPE,EPOCH,MEAN_MOTION,ECCENTRICITY,INCLINATION,RA_OF_ASC_NODE,ARG_OF_PERICENTER,MEAN_ANOMALY,BSTAR,MEAN_MOTION_DOT,MEAN_MOTION_DDOT,TLE_LINE0,TLE_LINE1,TLE_LINE2,SEMIMAJOR_AXIS,PERIOD,APOGEE,PERIGEE,DECAYED
51890.0,STARLINK-3519,PAYLOAD,2022-09-08 22:00:00,15.08851429,0.0001564,53.2182,335.2747,55.5977,297.7328,-0.0024303,-0.0003877,0.0,0 STARLINK-3519,1 51890U 22022AQ  22251.91667824 -.00038770  00000-0 -24303-2 0  9997,2 51890  53.2182 335.2747 0001564  55.5977 297.7328 15.08851429  1306,6917.845,95.437,540.7919999999998,538.629,0.0
51890.0,STARLINK-3519,PAYLOAD,2022-09-09 00:00:02,15.08823722,0.0001503,53.2184,334.9001,58.4103,27.8901,0.00099207,0.00015529,0.0,0 STARLINK-3519,1 51890U 22022AQ  22252.00002315  .00015529  00000-0  99207-3 0  9997,2 51890  53.2184 334.9001 0001503  58.4103  27.8901 15.08823722 30354,6917.93,95.439,540.835,538.755,0.0
51890.0,STARLINK-3519,PAYLOAD,2022-09-09 14:00:01,15.08817146,0.0001602,53.2184,332.2833,52.77,323.7554,0.00092074,0.00014387,0.0,0 STARLINK-3519,1 51890U 22022AQ  22252.58334491  .00014387  00000-0  92074-3 0  9999,2 51890  53.2184 332.2833 0001602  52.7700 323.7554 15.08817146  1306,6917.95,95.439,540.924,538.707,0.0
51890.0,STARLINK-3519,PAYLOAD,2022-09-09 22:00:00,15.08844014,0.0001473,53.2181,330.7858,54.0115,334.0885,-0.0010573,-0.00017077,0.0,0 STARLINK-3519,1 51890U 22022AQ  22252.91667824 -.00017077  00000-0 -10573-2 0  9999,2 51890  53.2181 330.7858 0001473  54.0115 334.0885 15.08844014  1300,6917.868,95.437,540.752,538.714,0.0
51890.0,STARLINK-3519,PAYLOAD,2022-09-10 14:00:01,15.08814558,0.0001657,53.218,327.7946,54.4133,356.88199999999995,0.0012603,0.00019813,0.0,0 STARLINK-3519,1 51890U 22022AQ  22253.58334491  .00019813  00000-0  12603-2 0  9998,2 51890  53.2180 327.7946 0001657  54.4133 356.8820 15.08814558  1302,6917.958000000001,95.439,540.969,538.677,0.0
51890.0,STARLINK-3519,PAYLOAD,2022-09-10 22:00:00,15.08837653,0.0001545,53.2176,326.297,57.6384,5.2296,-0.00088268,-0.00014307,0.0,0 STARLINK-3519,1 51890U 22022AQ  22253.91667824 -.00014307  00000-0 -88268-3 0  9990,2 51890  53.2176 326.2970 0001545  57.6384   5.2296 15.08837653  1300,6917.888000000001,95.438,540.821,538.684,0.0
51890.0,STARLINK-3519,PAYLOAD,2022-09-11 06:00:00,15.08851836,0.0001519,53.2175,324.8006,61.347,13.1152,0.00052269,8.043e-05,0.0,0 STARLINK-3519,1 51890U 22022AQ  22254.25001157  .00008043  00000-0  52269-3 0  9999,2 51890  53.2175 324.8006 0001519  61.3470  13.1152 15.08851836 30694,6917.844,95.437,540.76,538.658,0.0
51890.0,STARLINK-3519,PAYLOAD,2022-09-11 14:00:01,15.08848853,0.0001598,53.2172,323.3058,53.3322,32.7464,-0.0008443999999999,-0.00013705,0.0,0 STARLINK-3519,1 51890U 22022AQ  22254.58334491 -.00013705  00000-0 -84440-3 0  9994,2 51890  53.2172 323.3058 0001598  53.3322  32.7464 15.08848853  1300,6917.853,95.437,540.8240000000002,538.613,0.0
51890.0,STARLINK-3519,PAYLOAD,2022-09-11 22:00:00,15.08843428,0.000146,53.2168,321.8079,56.2619,41.4175,-0.00075517,-0.00012287,0.0,0 STARLINK-3519,1 51890U 22022AQ  22254.91667824 -.00012287  00000-0 -75517-3 0  9999,2 51890  53.2168 321.8079 0001460  56.2619  41.4175 15.08843428  1309,6917.87,95.437,540.745,538.725,0.0
51890.0,STARLINK-3519,PAYLOAD,2022-09-12 14:00:01,15.0881264,0.0001663,53.2164,318.8166,53.3981,67.4731,0.0027229,0.00043281,0.0,0 STARLINK-3519,1 51890U 22022AQ  22255.58334491  .00043281  00000-0  27229-2 0  9996,2 51890  53.2164 318.8166 0001663  53.3981  67.4731 15.08812640  1301,6917.964,95.439,540.979,538.679,0.0
51890.0,STARLINK-3519,PAYLOAD,2022-09-12 22:00:00,15.08839438,0.0001501,53.2162,317.3186,56.6467,75.8096,-0.0018637999999999,-0.00029827,0.0,0 STARLINK-3519,1 51890U 22022AQ  22255.91667824 -.00029827  00000-0 -18638-2 0  9998,2 51890  53.2162 317.3186 0001501  56.6467  75.8096 15.08839438  1302,6917.882,95.438,540.785,538.7090000000002,0.0
51890.0,STARLINK-3519,PAYLOAD,2022-09-13 06:00:00,15.08880687,0.0001509,53.2165,315.815,58.3011,85.7337,-0.0079376,-0.00124576,0.0,0 STARLINK-3519,1 51890U 22022AQ  22256.25001157 -.00124576  00000-0 -79376-2 0  9990,2 51890  53.2165 315.8150 0001509  58.3011  85.7337 15.08880687 30998,6917.755999999999,95.435,540.665,538.577,0.0
51890.0,STARLINK-3519,PAYLOAD,2022-09-13 14:00:01,15.08693255,0.0001588,53.217,314.3155,49.5681,106.0843,0.01268,0.00206664,0.0,0 STARLINK-3519,1 51890U 22022AQ  22256.58334491  .00206664  00000-0  12680-1 0  9997,2 51890  53.2170 314.3155 0001588  49.5681 106.0843 15.08693255  1300,6918.329000000002,95.447,541.293,539.095,0.0
51890.0,STARLINK-3519,PAYLOAD,2022-09-13 16:00:00,15.08752048,0.0001575,53.2169,313.9401,49.9541,198.5529,0.0084372,0.0013627,0.0,0 STARLINK-3519,1 51890U 22022AQ  22256.66667824  .00136270  00000-0  84372-2 0  9998,2 51890  53.2169 313.9401 0001575  49.9541 198.5529 15.08752048 31050,6918.149,95.443,541.104,538.925,0.0
51890.0,STARLINK-3519,PAYLOAD,2022-09-13 22:00:00,15.08813084,0.0001597,53.2161,312.8287,56.0686,111.1422,9.2758e-05,1.188e-05,0.0,0 STARLINK-3519,1 51890U 22022AQ  22256.91667824  .00001188  00000-0  92758-4 0  9994,2 51890  53.2161 312.8287 0001597  56.0686 111.1422 15.08813084  1301,6917.9630000000025,95.439,540.932,538.7230000000002,0.0
51890.0,STARLINK-3519,PAYLOAD,2022-09-14 06:00:00,15.08835725,0.0001688,53.2161,311.3328,59.4876,119.2888,-0.00055796,-9.156e-05,0.0,0 STARLINK-3519,1 51890U 22022AQ  22257.25001157 -.00009156  00000-0 -55796-3 0  9998,2 51890  53.2161 311.3328 0001688  59.4876 119.2888 15.08835725 31146,6917.893,95.438,540.9259999999998,538.591,0.0
51890.0,STARLINK-3519,PAYLOAD,2022-09-14 14:00:01,15.08807179,0.0001810999999999,53.2161,309.8378,51.5134,138.8547,0.0035904,0.00057267,0.0,0 STARLINK-3519,1 51890U 22022AQ  22257.58334491  .00057267  00000-0  35904-2 0  9996,2 51890  53.2161 309.8378 0001811  51.5134 138.8547 15.08807179  1307,6917.981,95.44,541.099,538.5930000000002,0.0
51890.0,STARLINK-3519,PAYLOAD,2022-09-14 22:00:00,15.08839009,0.0001636,53.2163,308.3396,54.9325,147.0204,-0.0015795,-0.00025337,0.0,0 STARLINK-3519,1 51890U 22022AQ  22257.91667824 -.00025337  00000-0 -15795-2 0  9993,2 51890  53.2163 308.3396 0001636  54.9325 147.0204 15.08839009  1306,6917.8830000000025,95.438,540.88,538.617,0.0
51890.0,STARLINK-3519,PAYLOAD,2022-09-15 14:00:01,15.08811735,0.0001814,53.2165,305.3483,49.1223,176.0079,0.0037220999999999,0.00059403,0.0,0 STARLINK-3519,1 51890U 22022AQ  22258.58334491  .00059403  00000-0  37221-2 0  9995,2 51890  53.2165 305.3483 0001814  49.1223 176.0079 15.08811735  1301,6917.967,95.439,541.087,538.577,0.0
51890.0,STARLINK-3519,PAYLOAD,2022-09-15 16:00:00,15.08837593,0.000178,53.2162,304.9738,48.7444,269.2743,0.0010535,0.00016517,0.0,0 STARLINK-3519,1 51890U 22022AQ  22258.66667824  .00016517  00000-0  10535-2 0  9991,2 51890  53.2162 304.9738 0001780  48.7444 269.2743 15.08837593  1301,6917.888000000001,95.438,540.984,538.521,0.0
51890.0,STARLINK-3519,PAYLOAD,2022-09-16 11:15:47,15.08832985,0.0001695,53.2165,301.3729,44.0654,316.0473,6.53e-05,7.51e-06,0.0,0 STARLINK-3519,1 51890U 22022AQ  22259.46930398  .00000751  00000-0  65300-4 0  9994,2 51890  53.2165 301.3729 0001695  44.0654 316.0473 15.08832985 31485,6917.901999999999,95.438,540.939,538.594,0.0
51890.0,STARLINK-3519,PAYLOAD,2022-09-17 09:31:12,15.0882592,0.0001737,53.2165,297.209,41.7031,318.4094,2.8207e-05,1.61e-06,0.0,0 STARLINK-3519,1 51890U 22022AQ  22260.39667352  .00000161  00000-0  28207-4 0  9995,2 51890  53.2165 297.2090 0001737  41.7031 318.4094 15.08825920 31621,6917.9230000000025,95.438,540.99,538.587,0.0
51890.0,STARLINK-3519,PAYLOAD,2022-09-17 19:03:31,15.08828433,0.0001548,53.2162,295.4242,48.4312,311.6813,-3.6321e-05,-8.66e-06,0.0,0 STARLINK-3519,1 51890U 22022AQ  22260.79411637 -.00000866  00000-0 -36321-4 0  9992,2 51890  53.2162 295.4242 0001548  48.4312 311.6813 15.08828433 31685,6917.916,95.438,540.852,538.71,0.0
51890.0,STARLINK-3519,PAYLOAD,2022-09-18 09:21:59,15.08836584,0.0001717,53.217,292.7461,49.215,310.8991,4.6844e-06,-2.14e-06,0.0,0 STARLINK-3519,1 51890U 22022AQ  22261.39027407 -.00000214  00000-0  46844-5 0  9995,2 51890  53.2170 292.7461 0001717  49.2150 310.8991 15.08836584 31778,6917.891,95.438,540.944,538.568,0.0
51890.0,STARLINK-3519,PAYLOAD,2022-09-19 01:15:51,15.08827283,0.0001710999999999,53.2168,289.7725,54.4339,305.6813,7.043199999999999e-05,8.33e-06,0.0,0 STARLINK-3519,1 51890U 22022AQ  22262.05268118  .00000833  00000-0  70432-4 0  9990,2 51890  53.2168 289.7725 0001711  54.4339 305.6813 15.08827283 31877,6917.919,95.438,540.9680000000002,538.601,0.0
51890.0,STARLINK-3519,PAYLOAD,2022-09-19 10:48:10,15.08830787,0.000185,53.2171,287.9884,52.699,307.4171,9.3742e-05,1.204e-05,0.0,0 STARLINK-3519,1 51890U 22022AQ  22262.45012152  .00001204  00000-0  93742-4 0  9991,2 51890  53.2171 287.9884 0001850  52.6990 307.4171 15.08830787 31931,6917.909000000002,95.438,541.053,538.494,0.0
51890.0,STARLINK-3519,PAYLOAD,2022-09-20 10:38:57,15.08844616,0.0001865999999999,53.2168,283.5276,51.3779,308.738,-4.4186000000000014e-05,-9.91e-06,0.0,0 STARLINK-3519,1 51890U 22022AQ  22263.44372066 -.00000991  00000-0 -44186-4 0  9996,2 51890  53.2168 283.5276 0001866  51.3779 308.7380 15.08844616 32081,6917.866,95.437,541.0219999999998,538.44,0.0
51890.0,STARLINK-3519,PAYLOAD,2022-09-20 18:35:53,15.08834012,0.0001774,53.2167,282.0403,53.6038,306.5118,3.7545e-05,3.09e-06,0.0,0 STARLINK-3519,1 51890U 22022AQ  22263.77492583  .00000309  00000-0  37545-4 0  9991,2 51890  53.2167 282.0403 0001774  53.6038 306.5118 15.08834012 32137,6917.899,95.438,540.991,538.536,0.0
51890.0,STARLINK-3519,PAYLOAD,2022-09-21 10:29:44,15.08840568,0.0001797,53.2169,279.0672,55.7383,304.3779,6.875e-05,8.06e-06,0.0,0 STARLINK-3519,1 51890U 22022AQ  22264.43732210  .00000806  00000-0  68750-4 0  9993,2 51890  53.2169 279.0672 0001797  55.7383 304.3779 15.08840568 32237,6917.879,95.438,540.987,538.501,0.0
